CCSDS_OMM_VERS = 2.0
CREATION_DATE  = 
ORIGINATOR     = 

OBJECT_NAME    = STARLINK-36154
OBJECT_ID      = 2025-286Q
CENTER_NAME    = EARTH
REF_FRAME      = TEME
TIME_SYSTEM    = UTC
MEAN_ELEMENT_THEORY = SGP/SGP4

EPOCH          = 2026-01-05T02:18:08.875584
MEAN_MOTION    = 15.39633220
ECCENTRICITY   = .00010157
INCLINATION    = 53.1602
RA_OF_ASC_NODE = 296.4386
ARG_OF_PERICENTER = 69.6906
MEAN_ANOMALY   = 290.4208

EPHEMERIS_TYPE = 0
CLASSIFICATION_TYPE = U
NORAD_CAT_ID   = 66939
ELEMENT_SET_NO = 999
REV_AT_EPOCH   = 564
BSTAR          = .13280506E-2
MEAN_MOTION_DOT = .53115E-3
MEAN_MOTION_DDOT = 0

CCSDS_OMM_VERS = 2.0
CREATION_DATE  = 
ORIGINATOR     = 

OBJECT_NAME    = STARLINK-36121
OBJECT_ID      = 2025-286R
CENTER_NAME    = EARTH
REF_FRAME      = TEME
TIME_SYSTEM    = UTC
MEAN_ELEMENT_THEORY = SGP/SGP4

EPOCH          = 2026-01-05T05:18:24.676416
MEAN_MOTION    = 15.39653467
ECCENTRICITY   = .00010891
INCLINATION    = 53.1599
RA_OF_ASC_NODE = 295.7951
ARG_OF_PERICENTER = 54.8255
MEAN_ANOMALY   = 305.2852

EPHEMERIS_TYPE = 0
CLASSIFICATION_TYPE = U
NORAD_CAT_ID   = 66940
ELEMENT_SET_NO = 999
REV_AT_EPOCH   = 566
BSTAR          = .18640768E-2
MEAN_MOTION_DOT = .74981E-3
MEAN_MOTION_DDOT = 0

CCSDS_OMM_VERS = 2.0
CREATION_DATE  = 
ORIGINATOR     = 

OBJECT_NAME    = STARLINK-36088
OBJECT_ID      = 2025-286S
CENTER_NAME    = EARTH
REF_FRAME      = TEME
TIME_SYSTEM    = UTC
MEAN_ELEMENT_THEORY = SGP/SGP4

EPOCH          = 2026-01-05T05:53:49.269696
MEAN_MOTION    = 15.49349698
ECCENTRICITY   = .00017857
INCLINATION    = 53.1589
RA_OF_ASC_NODE = 295.2319
ARG_OF_PERICENTER = 107.3025
MEAN_ANOMALY   = 252.8180

EPHEMERIS_TYPE = 0
CLASSIFICATION_TYPE = U
NORAD_CAT_ID   = 66941
ELEMENT_SET_NO = 999
REV_AT_EPOCH   = 567
BSTAR          = .18071747E-2
MEAN_MOTION_DOT = .101522E-2
MEAN_MOTION_DDOT = 0

CCSDS_OMM_VERS = 2.0
CREATION_DATE  = 
ORIGINATOR     = 

OBJECT_NAME    = STARLINK-36100
OBJECT_ID      = 2025-286T
CENTER_NAME    = EARTH
REF_FRAME      = TEME
TIME_SYSTEM    = UTC
MEAN_ELEMENT_THEORY = SGP/SGP4

EPOCH          = 2026-01-05T05:11:43.363104
MEAN_MOTION    = 15.39655431
ECCENTRICITY   = .00006365
INCLINATION    = 53.1602
RA_OF_ASC_NODE = 295.7653
ARG_OF_PERICENTER = 100.0392
MEAN_ANOMALY   = 260.0685

EPHEMERIS_TYPE = 0
CLASSIFICATION_TYPE = U
NORAD_CAT_ID   = 66942
ELEMENT_SET_NO = 999
REV_AT_EPOCH   = 559
BSTAR          = .21925329E-2
MEAN_MOTION_DOT = .88426E-3
MEAN_MOTION_DDOT = 0

CCSDS_OMM_VERS = 2.0
CREATION_DATE  = 
ORIGINATOR     = 

OBJECT_NAME    = STARLINK-36109
OBJECT_ID      = 2025-286U
CENTER_NAME    = EARTH
REF_FRAME      = TEME
TIME_SYSTEM    = UTC
MEAN_ELEMENT_THEORY = SGP/SGP4

EPOCH          = 2026-01-05T06:00:02.000160
MEAN_MOTION    = 15.39566723
ECCENTRICITY   = .00013867
INCLINATION    = 53.1596
RA_OF_ASC_NODE = 295.5057
ARG_OF_PERICENTER = 84.1237
MEAN_ANOMALY   = 153.5589

EPHEMERIS_TYPE = 0
CLASSIFICATION_TYPE = U
NORAD_CAT_ID   = 66943
ELEMENT_SET_NO = 999
REV_AT_EPOCH   = 569
BSTAR          = .29568078E-2
MEAN_MOTION_DOT = .119531E-2
MEAN_MOTION_DDOT = 0

CCSDS_OMM_VERS = 2.0
CREATION_DATE  = 
ORIGINATOR     = 

OBJECT_NAME    = STARLINK-36112
OBJECT_ID      = 2025-286V
CENTER_NAME    = EARTH
REF_FRAME      = TEME
TIME_SYSTEM    = UTC
MEAN_ELEMENT_THEORY = SGP/SGP4

EPOCH          = 2026-01-05T06:00:02.000160
MEAN_MOTION    = 15.39559646
ECCENTRICITY   = .00013936
INCLINATION    = 53.1599
RA_OF_ASC_NODE = 295.4022
ARG_OF_PERICENTER = 87.7518
MEAN_ANOMALY   = 201.4460

EPHEMERIS_TYPE = 0
CLASSIFICATION_TYPE = U
NORAD_CAT_ID   = 66944
ELEMENT_SET_NO = 999
REV_AT_EPOCH   = 576
BSTAR          = .25519209E-2
MEAN_MOTION_DOT = .102858E-2
MEAN_MOTION_DDOT = 0

CCSDS_OMM_VERS = 2.0
CREATION_DATE  = 
ORIGINATOR     = 

OBJECT_NAME    = STARLINK-36110
OBJECT_ID      = 2025-286W
CENTER_NAME    = EARTH
REF_FRAME      = TEME
TIME_SYSTEM    = UTC
MEAN_ELEMENT_THEORY = SGP/SGP4

EPOCH          = 2026-01-05T06:00:02.000160
MEAN_MOTION    = 15.39616422
ECCENTRICITY   = .0001341
INCLINATION    = 53.1599
RA_OF_ASC_NODE = 295.4528
ARG_OF_PERICENTER = 90.7544
MEAN_ANOMALY   = 172.6896

EPHEMERIS_TYPE = 0
CLASSIFICATION_TYPE = U
NORAD_CAT_ID   = 66945
ELEMENT_SET_NO = 999
REV_AT_EPOCH   = 576
BSTAR          = .14508789E-2
MEAN_MOTION_DOT = .58071E-3
MEAN_MOTION_DDOT = 0

CCSDS_OMM_VERS = 2.0
CREATION_DATE  = 
ORIGINATOR     = 

OBJECT_NAME    = STARLINK-36115
OBJECT_ID      = 2025-286X
CENTER_NAME    = EARTH
REF_FRAME      = TEME
TIME_SYSTEM    = UTC
MEAN_ELEMENT_THEORY = SGP/SGP4

EPOCH          = 2026-01-05T06:00:02.000160
MEAN_MOTION    = 15.39548887
ECCENTRICITY   = .00011109
INCLINATION    = 53.1596
RA_OF_ASC_NODE = 295.3511
ARG_OF_PERICENTER = 88.4399
MEAN_ANOMALY   = 226.5536

EPHEMERIS_TYPE = 0
CLASSIFICATION_TYPE = U
NORAD_CAT_ID   = 66946
ELEMENT_SET_NO = 999
REV_AT_EPOCH   = 576
BSTAR          = .23312141E-2
MEAN_MOTION_DOT = .93781E-3
MEAN_MOTION_DDOT = 0

CCSDS_OMM_VERS = 2.0
CREATION_DATE  = 
ORIGINATOR     = 

OBJECT_NAME    = STARLINK-36089
OBJECT_ID      = 2025-286Y
CENTER_NAME    = EARTH
REF_FRAME      = TEME
TIME_SYSTEM    = UTC
MEAN_ELEMENT_THEORY = SGP/SGP4

EPOCH          = 2026-01-05T05:59:14.979552
MEAN_MOTION    = 15.48588708
ECCENTRICITY   = .00011485
INCLINATION    = 53.1593
RA_OF_ASC_NODE = 295.2557
ARG_OF_PERICENTER = 164.7503
MEAN_ANOMALY   = 195.3541

EPHEMERIS_TYPE = 0
CLASSIFICATION_TYPE = U
NORAD_CAT_ID   = 66947
ELEMENT_SET_NO = 999
REV_AT_EPOCH   = 567
BSTAR          = -.66747382E-2
MEAN_MOTION_DOT = -.346774E-2
MEAN_MOTION_DDOT = 0

CCSDS_OMM_VERS = 2.0
CREATION_DATE  = 
ORIGINATOR     = 

OBJECT_NAME    = STARLINK-36116
OBJECT_ID      = 2025-286Z
CENTER_NAME    = EARTH
REF_FRAME      = TEME
TIME_SYSTEM    = UTC
MEAN_ELEMENT_THEORY = SGP/SGP4

EPOCH          = 2026-01-05T06:00:02.000160
MEAN_MOTION    = 15.41794946
ECCENTRICITY   = .00011128
INCLINATION    = 53.1590
RA_OF_ASC_NODE = 295.3029
ARG_OF_PERICENTER = 70.7583
MEAN_ANOMALY   = 268.1803

EPHEMERIS_TYPE = 0
CLASSIFICATION_TYPE = U
NORAD_CAT_ID   = 66948
ELEMENT_SET_NO = 999
REV_AT_EPOCH   = 576
BSTAR          = -.56535953E-1
MEAN_MOTION_DOT = -.2146358E-1
MEAN_MOTION_DDOT = 0

CCSDS_OMM_VERS = 2.0
CREATION_DATE  = 
ORIGINATOR     = 

OBJECT_NAME    = STARLINK-36096
OBJECT_ID      = 2025-286AA
CENTER_NAME    = EARTH
REF_FRAME      = TEME
TIME_SYSTEM    = UTC
MEAN_ELEMENT_THEORY = SGP/SGP4

EPOCH          = 2026-01-05T00:00:00.999648
MEAN_MOTION    = 15.39618218
ECCENTRICITY   = .00013554
INCLINATION    = 53.1591
RA_OF_ASC_NODE = 296.7327
ARG_OF_PERICENTER = 83.9278
MEAN_ANOMALY   = 181.4685

EPHEMERIS_TYPE = 0
CLASSIFICATION_TYPE = U
NORAD_CAT_ID   = 66949
ELEMENT_SET_NO = 999
REV_AT_EPOCH   = 572
BSTAR          = .37353526E-3
MEAN_MOTION_DOT = .14569E-3
MEAN_MOTION_DDOT = 0

CCSDS_OMM_VERS = 2.0
CREATION_DATE  = 
ORIGINATOR     = 

OBJECT_NAME    = STARLINK-36111
OBJECT_ID      = 2025-286AB
CENTER_NAME    = EARTH
REF_FRAME      = TEME
TIME_SYSTEM    = UTC
MEAN_ELEMENT_THEORY = SGP/SGP4

EPOCH          = 2026-01-04T08:00:03.000384
MEAN_MOTION    = 15.49314390
ECCENTRICITY   = .00013886
INCLINATION    = 53.1591
RA_OF_ASC_NODE = 299.6237
ARG_OF_PERICENTER = 78.5962
MEAN_ANOMALY   = 215.4029

EPHEMERIS_TYPE = 0
CLASSIFICATION_TYPE = U
NORAD_CAT_ID   = 66950
ELEMENT_SET_NO = 999
REV_AT_EPOCH   = 562
BSTAR          = -.56502626E-3
MEAN_MOTION_DOT = -.31752E-3
MEAN_MOTION_DDOT = 0

