STARLINK-36154          
1 66939U 25286Q   26005.09593606  .00053115  00000+0  13281-2 0  9998
2 66939  53.1602 296.4386 0001015  69.6906 290.4208 15.39633220  5647
STARLINK-36121          
1 66940U 25286R   26005.22111894  .00074981  00000+0  18641-2 0  9999
2 66940  53.1599 295.7951 0001089  54.8255 305.2852 15.39653467  5665
STARLINK-36088          
1 66941U 25286S   26005.24570914  .00101522  00000+0  18072-2 0  9994
2 66941  53.1589 295.2319 0001785 107.3025 252.8180 15.49349698  5671
STARLINK-36100          
1 66942U 25286T   26005.21647411  .00088426  00000+0  21925-2 0  9997
2 66942  53.1602 295.7653 0000636 100.0392 260.0685 15.39655431  5591
STARLINK-36109          
1 66943U 25286U   26005.25002315  .00119531  00000+0  29568-2 0  9993
2 66943  53.1596 295.5057 0001386  84.1237 153.5589 15.39566723  5698
STARLINK-36112          
1 66944U 25286V   26005.25002315  .00102858  00000+0  25519-2 0  9990
2 66944  53.1599 295.4022 0001393  87.7518 201.4460 15.39559646  5767
STARLINK-36110          
1 66945U 25286W   26005.25002315  .00058071  00000+0  14509-2 0  9995
2 66945  53.1599 295.4528 0001341  90.7544 172.6896 15.39616422  5763
STARLINK-36115          
1 66946U 25286X   26005.25002315  .00093781  00000+0  23312-2 0  9995
2 66946  53.1596 295.3511 0001110  88.4399 226.5536 15.39548887  5767
STARLINK-36089          
1 66947U 25286Y   26005.24947893 -.00346774  00000+0 -66747-2 0  9998
2 66947  53.1593 295.2557 0001148 164.7503 195.3541 15.48588708  5675
STARLINK-36116          
1 66948U 25286Z   26005.25002315 -.02146358  00000+0 -56536-1 0  9993
2 66948  53.1590 295.3029 0001112  70.7583 268.1803 15.41794946  5769
STARLINK-36096          
1 66949U 25286AA  26005.00001157  .00014569  00000+0  37354-3 0  9993
2 66949  53.1591 296.7327 0001355  83.9278 181.4685 15.39618218  5728
STARLINK-36111          
1 66950U 25286AB  26004.33336806 -.00031752  00000+0 -56503-3 0  9994
2 66950  53.1591 299.6237 0001388  78.5962 215.4029 15.49314390  5622
